{"fetched_at":"2026-03-29T02:12:04Z","count":15717,"tles":[{"name":"BEIDOU-3 M18 (C37)","line1":"1 43707U 18093B   26085.48163138 -.00000030  00000+0  00000+0 0  9999","line2":"2 43707  54.1700 185.0943 0006336 332.6760  27.2992  1.86226396 49990","category":"GPS"}]}